store_id,name,address,city,latitude,longitude,phone,working_hours
0067,"ул. Ленина, д. 132","ул. Ленина, д. 132",,,,,
2740,"ул. Ленина, д. 132","ул. Ленина, д. 132",,,,,
0025,"ул. Песчаная, д. 40/1","ул. Песчаная, д. 40/1",,,,,
2815,"пр. Московский, д. 12","пр. Московский, д. 12",,,,,
0204,"пр. Московский, д. 12","пр. Московский, д. 12",,,,,
0218,"ул. Советская, д. 25","ул. Советская, д. 25",,,,,
0031,"ул. Николая Островского, д. 146А","ул. Николая Островского, д. 146А",,,,,
2750,"ул. Николая Островского, д. 146, лит. А","ул. Николая Островского, д. 146, лит. А",,,,,
0194,"ул. Яблочкова, д. 2В","ул. Яблочкова, д. 2В",,,,,
2701,"мкр. Юго-Восточный, д. 65","мкр. Юго-Восточный, д. 65",,,,,
0237,"мкр-н Юго-Восточный, д. 65","мкр-н Юго-Восточный, д. 65",,,,,
0151,"г. Балаково, ул. Комарова, д. 117","г. Балаково, ул. Комарова, д. 117",,,,,
0083,"ул. Власихинская, д. 67","ул. Власихинская, д. 67",,,,,
2636,"ул. Власихинская, д. 67","ул. Власихинская, д. 67",,,,,
0097,"пр. Ленина, д. 102В","пр. Ленина, д. 102В",,,,,
0854,"ул. Мало-Олонская, д. 28","ул. Мало-Олонская, д. 28",,,,,
0075,"Павловский тракт, д. 156","Павловский тракт, д. 156",,,,,
2534,"ул. Павловский тракт, д. 156","ул. Павловский тракт, д. 156",,,,,
0843,"ул. Попова, д. 86","ул. Попова, д. 86",,,,,
0844,"ул. Северо-Западная, д. 155","ул. Северо-Западная, д. 155",,,,,
0846,"ул. Сергея Семенова, д. 9","ул. Сергея Семенова, д. 9",,,,,
0848,"пр. Энергетиков, 11","пр. Энергетиков, 11",,,,,
0122,"ул. Победы, д. 83Б","ул. Победы, д. 83Б",,,,,
0123,"ул. Щорса, д. 43А","ул. Щорса, д. 43А",,,,,
0867,"пер. Коммунарский, зд. 53","пер. Коммунарский, зд. 53",,,,,
0085,"ул. Митрофанова, д. 1/1","ул. Митрофанова, д. 1/1",,,,,
2703,"ул. Гагарина, д. 75","ул. Гагарина, д. 75",,,,,
0110,"ул. Гагарина, д. 75","ул. Гагарина, д. 75",,,,,
0115,"ул. Объездная, д. 30","ул. Объездная, д. 30",,,,,
0765,"ул. Большая Московская, д. 69","ул. Большая Московская, д. 69",,,,,
0014,"ул. Великая, д. 22, лит. А","ул. Великая, д. 22, лит. А",,,,,
3525,"пр. Мира, д. 21А","пр. Мира, д. 21А",,,,,
0107,"ул. Псковская, д. 33","ул. Псковская, д. 33",,,,,
2531,"ул. Псковская, д. 33","ул. Псковская, д. 33",,,,,
3629,"г. Старая Русса, ул. Латышских Гвардейцев, д. 40, лит. А","г. Старая Русса, ул. Латышских Гвардейцев, д. 40, лит. А",,,,,
0323,"ш. Архонское, д. 1А, строение 1","ш. Архонское, д. 1А, строение 1",,,,,
0172,"ш. Московское, д. 2","ш. Московское, д. 2",,,,,
0136,"ул. Космонавтов, д. 30","ул. Космонавтов, д. 30",,,,,
2757,"ул. Космонавтов, д. 30","ул. Космонавтов, д. 30",,,,,
0211,"ул. Пролетарская, д. 8","ул. Пролетарская, д. 8",,,,,
0207,"пр. Университетский, д. 2","пр. Университетский, д. 2",,,,,
2751,"пр. Университетский, д. 105","пр. Университетский, д. 105",,,,,
0032,"пр. Университетский, д. 105","пр. Университетский, д. 105",,,,,
2754,"пр. Ленина, д. 313","пр. Ленина, д. 313",,,,,
0041,"пр. Ленина, д. 313","пр. Ленина, д. 313",,,,,
2668,"ш. Окружное, д. 35","ш. Окружное, д. 35",,,,,
0023,"ш. Окружное, д. 35","ш. Окружное, д. 35",,,,,
3185,"ул. Ворошилова, д.1а","ул. Ворошилова, д.1а",,,,,
0121,"ул. Домостроителей, д. 24","ул. Домостроителей, д. 24",,,,,
3180,"ул. Кривошеина, д. 13/1","ул. Кривошеина, д. 13/1",,,,,
0117,"пр. Московский, д. 129/1","пр. Московский, д. 129/1",,,,,
0320,"обл. Воронежская, п. Отрадное, ул. Осиновая, зд. 4","обл. Воронежская, п. Отрадное, ул. Осиновая, зд. 4",,,,,
3182,"с.п. Комсомольское, д. Князево, ул. Советская, д. 137а","с.п. Комсомольское, д. Князево, ул. Советская, д. 137а",,,,,
3175,"с. Ямное, ул. Ленина, д. 63","с. Ямное, ул. Ленина, д. 63",,,,,
3176,"с. Ямное, ул. Фельдмаршала Кутузова, д. 32, лит. а","с. Ямное, ул. Фельдмаршала Кутузова, д. 32, лит. а",,,,,
2742,"ул. Свирская, д. 45","ул. Свирская, д. 45",,,,,
0152,"г.  Димитровград, ул. Свирская, д. 45","г.  Димитровград, ул. Свирская, д. 45",,,,,
0229,"ул. 22 Партсъезда, д. 2","ул. 22 Партсъезда, д. 2",,,,,
2698,"ул. 22 Партсъезда, д. 2","ул. 22 Партсъезда, д. 2",,,,,
0227,"пр. Академика Сахарова, д. 107/1","пр. Академика Сахарова, д. 107/1",,,,,
2564,"пр. Академика Сахарова, д. 107/1","пр. Академика Сахарова, д. 107/1",,,,,
0228,"пр. Космонавтов, стр. 1В/1","пр. Космонавтов, стр. 1В/1",,,,,
2565,"пр. Космонавтов, стр. 1В/1","пр. Космонавтов, стр. 1В/1",,,,,
0904,"ул. Кузнечная, д. 79","ул. Кузнечная, д. 79",,,,,
0907,"ул. Московская, д. 200","ул. Московская, д. 200",,,,,
0203,"Сибирский тракт (дублёр), д. 19/1","Сибирский тракт (дублёр), д. 19/1",,,,,
2563,"Сибирский тракт (дублёр), д. 19/1","Сибирский тракт (дублёр), д. 19/1",,,,,
0906,"ул. Сыромолотова, д. 31","ул. Сыромолотова, д. 31",,,,,
0230,"ул. Таганская, д. 60, А","ул. Таганская, д. 60, А",,,,,
2697,"ул. Таганская, д. 60, лит. А","ул. Таганская, д. 60, лит. А",,,,,
0911,"г. Первоуральск, ул. Комсомольская, д. 15Б","г. Первоуральск, ул. Комсомольская, д. 15Б",,,,,
0913,"г. Первоуральск, ул. Космонавтов, д. 13","г. Первоуральск, ул. Космонавтов, д. 13",,,,,
2755,"п. Иноземцево, ул. Геологическая, д. 29","п. Иноземцево, ул. Геологическая, д. 29",,,,,
0044,"п. Иноземцево, ул. Геологическая, д. 29","п. Иноземцево, ул. Геологическая, д. 29",,,,,
0155,"ул. Карла Маркса, д. 3, лит. А","ул. Карла Маркса, д. 3, лит. А",,,,,
2816,"ул. Карла Маркса, д. 3, лит. А","ул. Карла Маркса, д. 3, лит. А",,,,,
2676,"ул. Лежневская, д. 164","ул. Лежневская, д. 164",,,,,
0171,"ул. Лежневская, д. 164","ул. Лежневская, д. 164",,,,,
0112,"пр. Строителей, д. 25","пр. Строителей, д. 25",,,,,
0165,"ул. Баранова, д. 87","ул. Баранова, д. 87",,,,,
0040,"ул. Камбарская, д. 110","ул. Камбарская, д. 110",,,,,
2734,"ул. Камбарская, д. 110","ул. Камбарская, д. 110",,,,,
0177,"ул. Кирова, д. 146","ул. Кирова, д. 146",,,,,
0126,"ул. Сергеева, д. 3/5","ул. Сергеева, д. 3/5",,,,,
0236,"ул. Франк-Каменецкого, стр. 13/1","ул. Франк-Каменецкого, стр. 13/1",,,,,
0219,"ул. Адоратского, д. 21А, кор. 2","ул. Адоратского, д. 21А, кор. 2",,,,,
2747,"ул. Адоратского, д. 21, кор. 2, лит. А","ул. Адоратского, д. 21, кор. 2, лит. А",,,,,
0238,"ул. Закиева, д. 10","ул. Закиева, д. 10",,,,,
0058,"ул. Комиссара Габишева, д. 32","ул. Комиссара Габишева, д. 32",,,,,
0220,"ул. Копылова, д. 1Б","ул. Копылова, д. 1Б",,,,,
2748,"ул. Копылова, д. 1, лит. Б","ул. Копылова, д. 1, лит. Б",,,,,
0307,"ул. Павлюхина, д. 91","ул. Павлюхина, д. 91",,,,,
0221,"ул. Рихарда Зорге, д. 11Б","ул. Рихарда Зорге, д. 11Б",,,,,
0644,"ул. 65 лет Победы, д. 27А","ул. 65 лет Победы, д. 27А",,,,,
0161,"ш. Грабцевское, д. 59","ш. Грабцевское, д. 59",,,,,
2814,"ш. Грабцевское, д. 59","ш. Грабцевское, д. 59",,,,,
3197,"р-н Жуковский, дер. Папино, д. 93","р-н Жуковский, дер. Папино, д. 93",,,,,
3119,"р-н Жуковский, д. Воробьи, ул. Московская, зд. 19","р-н Жуковский, д. Воробьи, ул. Московская, зд. 19",,,,,
3076,"дер. Кабицино, ул. Олимпийская, д. 2","дер. Кабицино, ул. Олимпийская, д. 2",,,,,
0610,"г. Малоярославец, ул. Парижской Коммуны, д. 51","г. Малоярославец, ул. Парижской Коммуны, д. 51",,,,,
2700,"ул. Суворова, д. 48","ул. Суворова, д. 48",,,,,
0176,"ул. Суворова, д. 48","ул. Суворова, д. 48",,,,,
0866,"ул. Автозаводская, д. 6","ул. Автозаводская, д. 6",,,,,
0139,"ул. Баумана, д. 20","ул. Баумана, д. 20",,,,,
2639,"ул. Баумана, д. 20","ул. Баумана, д. 20",,,,,
0178,"пр. Кузнецкий, стр. 33","пр. Кузнецкий, стр. 33",,,,,
2544,"пр. Кузнецкий, д. 33","пр. Кузнецкий, д. 33",,,,,
0851,"пр. Ленина, д. 59А","пр. Ленина, д. 59А",,,,,
0838,"пр. Ленина, д. 64","пр. Ленина, д. 64",,,,,
0840,"пр. Ленина, д. 116","пр. Ленина, д. 116",,,,,
0089,"пр. Ленинградский, д. 28B","пр. Ленинградский, д. 28B",,,,,
2539,"пр. Ленинградский, д. 28, лит. В","пр. Ленинградский, д. 28, лит. В",,,,,
0820,"бул. Строителей, д. 28","бул. Строителей, д. 28",,,,,
0244,"мкр. Давыдовский, д. 11","мкр. Давыдовский, д. 11",,,,,
0038,"ул. Восточный Обход, д. 19","ул. Восточный Обход, д. 19",,,,,
0179,"ул. Западный Обход, д. 29","ул. Западный Обход, д. 29",,,,,
2760,"ул. Западный Обход, д. 29","ул. Западный Обход, д. 29",,,,,
0039,"ул. Российская, д. 257","ул. Российская, д. 257",,,,,
2753,"ул. Российская, д. 257","ул. Российская, д. 257",,,,,
0087,"ул. 9 Мая, д. 62","ул. 9 Мая, д. 62",,,,,
2637,"ул. 9 Мая, д. 62","ул. 9 Мая, д. 62",,,,,
0140,"ул. Дмитрия Мартынова, д. 12","ул. Дмитрия Мартынова, д. 12",,,,,
0247,"ул. Мичурина, д. 77","ул. Мичурина, д. 77",,,,,
2546,"ул. Мичурина, д. 77","ул. Мичурина, д. 77",,,,,
0223,"ул. Свердловская, д. 73","ул. Свердловская, д. 73",,,,,
2545,"ул. Свердловская, д. 73","ул. Свердловская, д. 73",,,,,
0153,"ул. Ястынская, д. 19, лит. Д","ул. Ястынская, д. 19, лит. Д",,,,,
2543,"ул. Ястынская, д. 19, лит. Д","ул. Ястынская, д. 19, лит. Д",,,,,
0309,"ул. Коли Мяготина, д. 8","ул. Коли Мяготина, д. 8",,,,,
0028,"ул. Энгельса, д. 115, лит. Д","ул. Энгельса, д. 115, лит. Д",,,,,
0188,"ул. Катукова, д. 51","ул. Катукова, д. 51",,,,,
0148,"ул. М. И. Неделина, д. 4","ул. М. И. Неделина, д. 4",,,,,
0074,"ул. Вокзальная, д. 23","ул. Вокзальная, д. 23",,,,,
0192,"пр. Ленина, д. 119","пр. Ленина, д. 119",,,,,
0306,"ул. Степная, д. 190","ул. Степная, д. 190",,,,,
0050,"респ. Марий Эл, пгт. Медведево, ул. Логинова, д. 10","респ. Марий Эл, пгт. Медведево, ул. Логинова, д. 10",,,,,
0601,"ул. 1-я Останкинская, д. 55","ул. 1-я Останкинская, д. 55",,,,,
1361,"ул. 2-я Мелитопольская, д. 3A","ул. 2-я Мелитопольская, д. 3A",,,,,
0124,"ул. 7-я Кожуховская, д. 9","ул. 7-я Кожуховская, д. 9",,,,,
0516,"ул. 9-я Парковая, д. 68, корп. 5","ул. 9-я Парковая, д. 68, корп. 5",,,,,
1340,"ул.  Академика Капицы, д. 28","ул.  Академика Капицы, д. 28",,,,,
1307,"ул. Армавирская, д. 5","ул. Армавирская, д. 5",,,,,
1316,"ул. Бауманская, д. 32, стр. 2","ул. Бауманская, д. 32, стр. 2",,,,,
1333,"ул. Белозерская, д. 11Г","ул. Белозерская, д. 11Г",,,,,
0673,"ул. Беломорская, д. 16, А","ул. Беломорская, д. 16, А",,,,,
0291,"ул. Бибиревская, д. 10, к. 2","ул. Бибиревская, д. 10, к. 2",,,,,
1392,"ул.  Большая Академическая, д. 17","ул.  Большая Академическая, д. 17",,,,,
0302,"ул. Большая Черемушкинская, д. 1","ул. Большая Черемушкинская, д. 1",,,,,
1334,"ул. Борисовские пруды, д. 14, к. 5","ул. Борисовские пруды, д. 14, к. 5",,,,,
0029,"ул. Борисовские пруды, д. 26, к. 2","ул. Борисовские пруды, д. 26, к. 2",,,,,
0626,"пр. Будённого, д. 18, лит. Б","пр. Будённого, д. 18, лит. Б",,,,,
1456,"пр-д Валдайский , д. 8","пр-д Валдайский , д. 8",,,,,
3037,"б-р Веласкеса, д. 3, к. 1","б-р Веласкеса, д. 3, к. 1",,,,,
1397,"ул. Вешняковская, д. 13А","ул. Вешняковская, д. 13А",,,,,
1446,"ул. Винокурова, д. 4, к. 1","ул. Винокурова, д. 4, к. 1",,,,,
0160,"пр. Волгоградский, д. 177, стр. 1","пр. Волгоградский, д. 177, стр. 1",,,,,
0514,"пр. Волгоградский, д. 73, стр. 1","пр. Волгоградский, д. 73, стр. 1",,,,,
1338,"ул. Генерала Белова, д. 59","ул. Генерала Белова, д. 59",,,,,
1320,"ул. Генерала Тюленева, д. 4А, стр. 3","ул. Генерала Тюленева, д. 4А, стр. 3",,,,,
1445,"ул. Дегунинская, д. 13","ул. Дегунинская, д. 13",,,,,
0293,"ш. Дмитровское, д. 116, Д","ш. Дмитровское, д. 116, Д",,,,,
1404,"ш. Дмитровское, д. 101, к. 1","ш. Дмитровское, д. 101, к. 1",,,,,
1393,"ш. Дмитровское , д. 113, корп. 1","ш. Дмитровское , д. 113, корп. 1",,,,,
1377,"ул. Дудинка, д. 2, к. 1","ул. Дудинка, д. 2, к. 1",,,,,
0521,"ул. Живописная, д. 12, корп. 1","ул. Живописная, д. 12, корп. 1",,,,,
0520,"пр. Зеленый, д. 24, стр. 1","пр. Зеленый, д. 24, стр. 1",,,,,
0680,"ул. Зои и Александра Космодемьянских, д. 23","ул. Зои и Александра Космодемьянских, д. 23",,,,,
0606,"ул. Ивана Франко, д. 38, к. 1","ул. Ивана Франко, д. 38, к. 1",,,,,
0525,"б-р Измайловский, д. 60/10","б-р Измайловский, д. 60/10",,,,,
1378,"пр-д Измайловский , д. 3, стр. 2","пр-д Измайловский , д. 3, стр. 2",,,,,
1313,"ул. Изюмская, д. 36","ул. Изюмская, д. 36",,,,,
0517,"ул. Исаковского, д. 6, корп. 2","ул. Исаковского, д. 6, корп. 2",,,,,
1425,"пер. Колодезный, д. 3","пер. Колодезный, д. 3",,,,,
1466,"пл. Комсомольская, д. 2","пл. Комсомольская, д. 2",,,,,
1414,"пл. Комсомольская, д. 6","пл. Комсомольская, д. 6",,,,,
1413,"ул. Красная Пресня, д. 23, к. Б, стр. 1","ул. Красная Пресня, д. 23, к. Б, стр. 1",,,,,
1415,"ул. Краснобогатырская, д. 23","ул. Краснобогатырская, д. 23",,,,,
1384,"ул. Краснобогатырская, д. 13","ул. Краснобогатырская, д. 13",,,,,
1419,"ул. Красного маяка, д. 9","ул. Красного маяка, д. 9",,,,,
1314,"ул. Краснодарская, д. 57, к. 1","ул. Краснодарская, д. 57, к. 1",,,,,
1447,"пр. Ленинский, д. 74","пр. Ленинский, д. 74",,,,,
0182,"пр. Ленинский , 123, В","пр. Ленинский , 123, В",,,,,
1335,"пр. Маршала Жукова, д. 42, к. 1","пр. Маршала Жукова, д. 42, к. 1",,,,,
1381,"ул. Менжинского, д. 32","ул. Менжинского, д. 32",,,,,
1416,"ул. Митинская, д. 53","ул. Митинская, д. 53",,,,,
0524,"ул. Михалковская, д. 6","ул. Михалковская, д. 6",,,,,
0639,"ш. Можайское, д. 39","ш. Можайское, д. 39",,,,,
1451,"ул. Молостовых, д. 13, к. 1","ул. Молостовых, д. 13, к. 1",,,,,
1351,"ул. Народного ополчения, д. 29, стр. 1","ул. Народного ополчения, д. 29, стр. 1",,,,,
1462,"ул. Новочеремушкинская, д. 53А","ул. Новочеремушкинская, д. 53А",,,,,
1417,"б-р Новочеркасский, д. 41, к. 4","б-р Новочеркасский, д. 41, к. 4",,,,,
1342,"ул. Обручева, д. 55, лит. А","ул. Обручева, д. 55, лит. А",,,,,
1453,"наб. Овчинниковская , 22/24, стр. 1","наб. Овчинниковская , 22/24, стр. 1",,,,,
0296,"б-р Ореховый, д. 22А","б-р Ореховый, д. 22А",,,,,
3014,"ш. Остафьевское, д. 12, к.1","ш. Остафьевское, д. 12, к.1",,,,,
1374,"ул. Отрадная, д. 7","ул. Отрадная, д. 7",,,,,
1380,"ул. Павла Корчагина, д. 3А","ул. Павла Корчагина, д. 3А",,,,,
0527,"ул. Перовская, д. 32, стр. 1","ул. Перовская, д. 32, стр. 1",,,,,
1337,"ул. Подольских Курсантов, д. 10","ул. Подольских Курсантов, д. 10",,,,,
3090,"наб. Пресненская, д. 10, стр. 2","наб. Пресненская, д. 10, стр. 2",,,,,
1454,"ул.  Рогожский вал, д. 3","ул.  Рогожский вал, д. 3",,,,,
1343,"проезд Россошанский, д. 8, к. 1","проезд Россошанский, д. 8, к. 1",,,,,
1449,"пр. Рязанский, д. 75, к. 1","пр. Рязанский, д. 75, к. 1",,,,,
1464,"б-р Скандинавский, д. 1, стр. 4","б-р Скандинавский, д. 1, стр. 4",,,,,
0651,"пл. Сокольническая, д. 4, к. 1-2","пл. Сокольническая, д. 4, к. 1-2",,,,,
1375,"ул. Тайнинская, д. 20","ул. Тайнинская, д. 20",,,,,
0515,"ул. Талалихина, д. 3","ул. Талалихина, д. 3",,,,,
0605,"ул. Твардовского, д. 2, к. 1","ул. Твардовского, д. 2, к. 1",,,,,
1309,"б-р Тихорецкий , д. 12, корп. 1","б-р Тихорецкий , д. 12, корп. 1",,,,,
0607,"ул. Тушинская, д. 17","ул. Тушинская, д. 17",,,,,
1329,"ул. Уральская, д. 3","ул. Уральская, д. 3",,,,,
1424,"ул. Усачева, д. 35, стр. 1","ул. Усачева, д. 35, стр. 1",,,,,
0503,"б-р Филевский, д. 10","б-р Филевский, д. 10",,,,,
1363,"ул. Хабаровская, д. 12/23","ул. Хабаровская, д. 12/23",,,,,
1360,"ул. Харьковская, д. 2","ул. Харьковская, д. 2",,,,,
3046,"ш. Хорошевское, д. 38, стр. 5","ш. Хорошевское, д. 38, стр. 5",,,,,
1336,"ул. Хромова, д. 3","ул. Хромова, д. 3",,,,,
0656,"б-р Чонгарский, д. 7","б-р Чонгарский, д. 7",,,,,
0535,"ул. Чусовская, д. 13","ул. Чусовская, д. 13",,,,,
1331,"ул. Широкая, д. 12Б","ул. Широкая, д. 12Б",,,,,
0675,"ул. Юных Ленинцев, д. 52","ул. Юных Ленинцев, д. 52",,,,,
1362,"б-р Яна Райниса, д. 18, к. 1","б-р Яна Райниса, д. 18, к. 1",,,,,
0522,"б-р Яна Райниса, д. 41","б-р Яна Райниса, д. 41",,,,,
0304,"ш. Ярославское, д. 54","ш. Ярославское, д. 54",,,,,
1376,"пр-д Ясный, д. 13, стр. 2","пр-д Ясный, д. 13, стр. 2",,,,,
0643,"г. Апрелевка, ул. Августовская, д. 14","г. Апрелевка, ул. Августовская, д. 14",,,,,
3044,"г. Апрелевка, ул. Некрасова, д. 27, к. 1","г. Апрелевка, ул. Некрасова, д. 27, к. 1",,,,,
0513,"дер. Атепцево, ул. Совхозная, стр. 7 В","дер. Атепцево, ул. Совхозная, стр. 7 В",,,,,
3063,"г. Балашиха, д. Федурново, ул. Авиарембаза, д. 12","г. Балашиха, д. Федурново, ул. Авиарембаза, д. 12",,,,,
0529,"г. Балашиха, ул. Автозаводская, д. 7А","г. Балашиха, ул. Автозаводская, д. 7А",,,,,
1412,"г. Балашиха, ш. Балашихинское, д. 10","г. Балашиха, ш. Балашихинское, д. 10",,,,,
0616,"г. Балашиха, ул. Гагарина, д. 7/4","г. Балашиха, ул. Гагарина, д. 7/4",,,,,
0128,"г.  Балашиха, мкр-н  Саввино, ул. Пригородная, стр. 90","г.  Балашиха, мкр-н  Саввино, ул. Пригородная, стр. 90",,,,,
0027,"г.  Балашиха, ш. Энтузиастов, д. 80","г.  Балашиха, ш. Энтузиастов, д. 80",,,,,
0669,"г. Балашиха, ш. Энтузиастов, д. 11/4","г. Балашиха, ш. Энтузиастов, д. 11/4",,,,,
1330,"г. Балашиха, ш. Энтузиастов, д. 1Б","г. Балашиха, ш. Энтузиастов, д. 1Б",,,,,
0661,"г. Видное, ул. Березовая, д. 1А","г. Видное, ул. Березовая, д. 1А",,,,,
3039,"г. Видное, п. Расторгуево, ул. Булатниковская, уч. №2ю","г. Видное, п. Расторгуево, ул. Булатниковская, уч. №2ю",,,,,
2812,"г. Видное, ул. Старо-Нагорная, д. 20","г. Видное, ул. Старо-Нагорная, д. 20",,,,,
0201,"г.  Видное, ул. Старо-Нагорная, д. 20","г.  Видное, ул. Старо-Нагорная, д. 20",,,,,
2503,"п.  Воскресенское, пр-д Чечёрский, д. 51","п.  Воскресенское, пр-д Чечёрский, д. 51",,,,,
0183,"п.  Воскресенское, пр-д Чечёрский, д. 51","п.  Воскресенское, пр-д Чечёрский, д. 51",,,,,
0292,"дер. Говорово, МКАД 47-й км, владение 31, стр. 1","дер. Говорово, МКАД 47-й км, владение 31, стр. 1",,,,,
0169,"г. Дмитров, ул. Бирлово Поле, д. 1","г. Дмитров, ул. Бирлово Поле, д. 1",,,,,
2675,"г. Дмитров, ул. Бирлово Поле, д. 1","г. Дмитров, ул. Бирлово Поле, д. 1",,,,,
1409,"г. Дмитров, ул. Советская, д. 5","г. Дмитров, ул. Советская, д. 5",,,,,
3088,"г.о. Дмитровский, с. Семеновское, c. 113","г.о. Дмитровский, с. Семеновское, c. 113",,,,,
3033,"г.о. Дмитровский, д. Целеево, ул. имени В. И. Барздо, д. 20","г.о. Дмитровский, д. Целеево, ул. имени В. И. Барздо, д. 20",,,,,
0665,"г. Долгопрудный, пр. Лихачёвский, д. 64","г. Долгопрудный, пр. Лихачёвский, д. 64",,,,,
0648,"г. Долгопрудный, ул. Московская, д. 58, к. 2","г. Долгопрудный, ул. Московская, д. 58, к. 2",,,,,
0196,"г. Домодедово, ул. Кирова, стр. 28","г. Домодедово, ул. Кирова, стр. 28",,,,,
1357,"г. Домодедово, ул. Лунная, д. 17, к. 1-3","г. Домодедово, ул. Лунная, д. 17, к. 1-3",,,,,
0609,"г. Егорьевск, ул. Советская, д. 4","г. Егорьевск, ул. Советская, д. 4",,,,,
1395,"г. Зеленоград, ул. Гоголя, к. 1006, лит. А","г. Зеленоград, ул. Гоголя, к. 1006, лит. А",,,,,
2800,"г. Зеленоград, ул. Гоголя, к. 1006, лит. А","г. Зеленоград, ул. Гоголя, к. 1006, лит. А",,,,,
0168,"г. Истра, ул. Московская, д. 61","г. Истра, ул. Московская, д. 61",,,,,
2674,"г. Истра, ул. Московская, д. 61","г. Истра, ул. Московская, д. 61",,,,,
3168,"г. Истра, ул. Урицкого, д. 120","г. Истра, ул. Урицкого, д. 120",,,,,
0509,"г. Кашира, ул. Стрелецкая, д. 68","г. Кашира, ул. Стрелецкая, д. 68",,,,,
0260,"г. Коломна, ул. Астахова, д. 4, к. 4","г. Коломна, ул. Астахова, д. 4, к. 4",,,,,
2811,"г. Коломна, ул. Астахова, д. 4, к. 4","г. Коломна, ул. Астахова, д. 4, к. 4",,,,,
0647,"г. Королев, ул. Пионерская, д. 19, к. 3","г. Королев, ул. Пионерская, д. 19, к. 3",,,,,
3043,"г. Королев, ул. Степана Разина, д. 8","г. Королев, ул. Степана Разина, д. 8",,,,,
0518,"г. Красногорск, ул. Б.Воскресенская , д. 1","г. Красногорск, ул. Б.Воскресенская , д. 1",,,,,
0628,"г. Красногорск, ш. Ильинское, д. 14, к. 1","г. Красногорск, ш. Ильинское, д. 14, к. 1",,,,,
1458,"г. Красногорск, ул. Ленина, д. 44А","г. Красногорск, ул. Ленина, д. 44А",,,,,
0667,"г. Красногорск, рп. Нахабино, ул. Школьная, д. 2","г. Красногорск, рп. Нахабино, ул. Школьная, д. 2",,,,,
0664,"дер. Лопатино, б-р Солнечный, д. 2","дер. Лопатино, б-р Солнечный, д. 2",,,,,
0246,"г. Луховицы, ул. Пушкина, д. 125, лит. Б","г. Луховицы, ул. Пушкина, д. 125, лит. Б",,,,,
0649,"г. Люберцы, ул. 3-е Почтовое отделение, д. 53А","г. Люберцы, ул. 3-е Почтовое отделение, д. 53А",,,,,
1403,"г. Люберцы, ул. 3-е Почтовое отделение, д. 100","г. Люберцы, ул. 3-е Почтовое отделение, д. 100",,,,,
0536,"г. Люберцы, ул. Шоссейная, д. 42, помещ. 43Н","г. Люберцы, ул. Шоссейная, д. 42, помещ. 43Н",,,,,
3102,"п. Малаховка, ш. Красковское, д. 1А, стр. 1","п. Малаховка, ш. Красковское, д. 1А, стр. 1",,,,,
3038,"г. Московский, 1-й микрорайон, д. 158","г. Московский, 1-й микрорайон, д. 158",,,,,
0623,"г. Мытищи, ул. 1-я Пролетарская, стр. 12Б","г. Мытищи, ул. 1-я Пролетарская, стр. 12Б",,,,,
0632,"г. Мытищи, ул. 3-я Крестьянская, д. 23","г. Мытищи, ул. 3-я Крестьянская, д. 23",,,,,
0510,"г. Мытищи, пр. Астрахова, стр. 8","г. Мытищи, пр. Астрахова, стр. 8",,,,,
0683,"г. Мытищи, д. Пирогово, ул. Совхозная, стр. 39","г. Мытищи, д. Пирогово, ул. Совхозная, стр. 39",,,,,
3012,"г.о. Мытищи, д. Пирогово, ул. Центральная, стр. 93","г.о. Мытищи, д. Пирогово, ул. Центральная, стр. 93",,,,,
0277,"г. Наро-Фоминск, пл. Свободы, д. 2","г. Наро-Фоминск, пл. Свободы, д. 2",,,,,
0615,"г. Ногинск, ул. 2-я Глуховская, д. 8, стр. 1-2","г. Ногинск, ул. 2-я Глуховская, д. 8, стр. 1-2",,,,,
0621,"г. Ногинск, ул. Ильича, д. 6","г. Ногинск, ул. Ильича, д. 6",,,,,
0627,"г. Одинцово, ул. Говорова, д. 24Б","г. Одинцово, ул. Говорова, д. 24Б",,,,,
0660,"г. Одинцово, ш. Можайское, д. 1А","г. Одинцово, ш. Можайское, д. 1А",,,,,
1435,"г. Одинцово, ш. Можайское, д. 71","г. Одинцово, ш. Можайское, д. 71",,,,,
3002,"г. Одинцово, ул. Северная , д. 13","г. Одинцово, ул. Северная , д. 13",,,,,
0670,"г. Одинцово, п. Трёхгорка, ул. Трёхгорная, д. 6","г. Одинцово, п. Трёхгорка, ул. Трёхгорная, д. 6",,,,,
1346,"Олимпийская деревня, пр. Мичуринский, д. 4, к. 3","Олимпийская деревня, пр. Мичуринский, д. 4, к. 3",,,,,
2801,"Олимпийская деревня, пр. Мичуринский, д. 4, к. 3","Олимпийская деревня, пр. Мичуринский, д. 4, к. 3",,,,,
0603,"г. Орехово-Зуево, ул. Ленина, д. 44А","г. Орехово-Зуево, ул. Ленина, д. 44А",,,,,
1410,"г. Пушкино, ул. Чехова, д. 12","г. Пушкино, ул. Чехова, д. 12",,,,,
3134,"г.о. Раменский, с. Заворово, стр. 80а","г.о. Раменский, с. Заворово, стр. 80а",,,,,
0298,"г. Реутов, МКАД 2-й км, д. 2","г. Реутов, МКАД 2-й км, д. 2",,,,,
0608,"г. Реутов, пр. Юбилейный, д. 2А","г. Реутов, пр. Юбилейный, д. 2А",,,,,
3091,"г.о. Рузский, п. Дорохово, ул. Невкипелого, д. 6а","г.о. Рузский, п. Дорохово, ул. Невкипелого, д. 6а",,,,,
0642,"р.п.  Селятино, ул. Больничная, д. 10","р.п.  Селятино, ул. Больничная, д. 10",,,,,
3024,"г. Селятино, ул. Спортивная, д. 1","г. Селятино, ул. Спортивная, д. 1",,,,,
0130,"г. Сергиев Посад, ш. Новоугличское, д. 85","г. Сергиев Посад, ш. Новоугличское, д. 85",,,,,
0175,"г.  Серпухов, дер. Борисово, д. 111А","г.  Серпухов, дер. Борисово, д. 111А",,,,,
2677,"г. Серпухов, дер. Борисово, д. 111А","г. Серпухов, дер. Борисово, д. 111А",,,,,
0630,"г. Серпухов, ул. Ворошилова, д. 139","г. Серпухов, ул. Ворошилова, д. 139",,,,,
0534,"г. Ступино, ул. Андропова, д. 56, лит. А, стр. 2","г. Ступино, ул. Андропова, д. 56, лит. А, стр. 2",,,,,
0150,"с.  Тарасовка, ул. Большая Тарасовская, стр. 6","с.  Тарасовка, ул. Большая Тарасовская, стр. 6",,,,,
0142,"г. Троицк, ш. Калужское, д. 58","г. Троицк, ш. Калужское, д. 58",,,,,
2502,"г. Троицк, Калужское ш., 42-й км, д. 6","г. Троицк, Калужское ш., 42-й км, д. 6",,,,,
0116,"г.о. Химки, дер. Елино, стр. 20/2","г.о. Химки, дер. Елино, стр. 20/2",,,,,
1463,"г. Химки, ул. Мельникова, д. 27, к. 1","г. Химки, ул. Мельникова, д. 27, к. 1",,,,,
1344,"г. Химки, пр. Юбилейный , д. 88","г. Химки, пр. Юбилейный , д. 88",,,,,
3025,"г. Хотьково, ул. Майолик, д. 19г","г. Хотьково, ул. Майолик, д. 19г",,,,,
3072,"г. Чехов, ул. Лопасненская, д. 8","г. Чехов, ул. Лопасненская, д. 8",,,,,
1422,"г. Чехов, ул. Полиграфистов, д. 21/1","г. Чехов, ул. Полиграфистов, д. 21/1",,,,,
0108,"дер. Шолохово, ш. Дмитровское, стр. 10","дер. Шолохово, ш. Дмитровское, стр. 10",,,,,
2672,"дер. Шолохово, ш. Дмитровское, стр. 10","дер. Шолохово, ш. Дмитровское, стр. 10",,,,,
0262,"ул. Радищева, д. 2","ул. Радищева, д. 2",,,,,
0163,"ул. Шевченко, д. 34","ул. Шевченко, д. 34",,,,,
2629,"ул. Шевченко, д. 34","ул. Шевченко, д. 34",,,,,
0055,"пр. Автозаводский, д. 62","пр. Автозаводский, д. 62",,,,,
2735,"пр. Автозаводский, д. 62","пр. Автозаводский, д. 62",,,,,
0284,"пр. Набережночелнинский, д. 13А","пр. Набережночелнинский, д. 13А",,,,,
2749,"пр. Набережночелнинский, д. 13, лит. А","пр. Набережночелнинский, д. 13, лит. А",,,,,
0317,"ул. Кузоваткина, д. 17","ул. Кузоваткина, д. 17",,,,,
0065,"ул. Лесная, д. 14","ул. Лесная, д. 14",,,,,
0294,"ул. Коминтерна, д. 11","ул. Коминтерна, д. 11",,,,,
0054,"ш. Московское, д. 30В","ш. Московское, д. 30В",,,,,
2670,"ш. Московское, д. 30В","ш. Московское, д. 30В",,,,,
0208,"ул. Ореховская, д. 15, к. 1","ул. Ореховская, д. 15, к. 1",,,,,
0051,"ул. Родионова, д. 200","ул. Родионова, д. 200",,,,,
2669,"ул. Родионова, д. 200","ул. Родионова, д. 200",,,,,
0206,"ш. Свердловское, д. 31","ш. Свердловское, д. 31",,,,,
0061,"пр. Уральский, д. 75","пр. Уральский, д. 75",,,,,
0141,"ул. Зорге, д. 7, лит. А","ул. Зорге, д. 7, лит. А",,,,,
0852,"ул. Кирова, д. 55","ул. Кирова, д. 55",,,,,
0863,"ул. Павловского, д. 13","ул. Павловского, д. 13",,,,,
0109,"ул. Транспортная, д. 136","ул. Транспортная, д. 136",,,,,
2704,"ул. Транспортная, д. 136","ул. Транспортная, д. 136",,,,,
0233,"ул. Хлебозаводская, д. 19","ул. Хлебозаводская, д. 19",,,,,
0086,"с.  Ильинка, ул. Светлая, д. 7","с.  Ильинка, ул. Светлая, д. 7",,,,,
0035,"ул. Григорьева, д. 1","ул. Григорьева, д. 1",,,,,
0034,"с.  Цемдолина, ул. Ленина, д. 7Ж","с.  Цемдолина, ул. Ленина, д. 7Ж",,,,,
2752,"с. Цемдолина, ул. Ленина, д. 7, лит. Ж","с. Цемдолина, ул. Ленина, д. 7, лит. Ж",,,,,
0173,"ш. Бердское, д. 2","ш. Бердское, д. 2",,,,,
2640,"ш. Бердское, д. 2","ш. Бердское, д. 2",,,,,
0073,"ул. Большевистская, д. 52/1","ул. Большевистская, д. 52/1",,,,,
2533,"ул. Большевистская, д. 52/1","ул. Большевистская, д. 52/1",,,,,
0831,"ул. Бориса Богаткова, д. 206","ул. Бориса Богаткова, д. 206",,,,,
0818,"ул. Ветлужская, д. 24","ул. Ветлужская, д. 24",,,,,
0835,"ул. Волховская, д. 30","ул. Волховская, д. 30",,,,,
0802,"ул. Геодезическая, д. 4/1","ул. Геодезическая, д. 4/1",,,,,
0833,"ш. Гусинобродское, д. 20","ш. Гусинобродское, д. 20",,,,,
0071,"ш. Гусинобродское, д. 64","ш. Гусинобродское, д. 64",,,,,
2532,"ш. Гусинобродское, д. 64","ш. Гусинобродское, д. 64",,,,,
0809,"ул. Депутатская, д. 46","ул. Депутатская, д. 46",,,,,
0849,"пр. Дзержинского, д. 2, к. 2","пр. Дзержинского, д. 2, к. 2",,,,,
0821,"ул. Дуси Ковальчук, д. 91","ул. Дуси Ковальчук, д. 91",,,,,
0812,"ул. Дуси Ковальчук, д. 276, к. 11","ул. Дуси Ковальчук, д. 276, к. 11",,,,,
0855,"ул. Ипподромская, д. 46","ул. Ипподромская, д. 46",,,,,
0801,"пл. Карла Маркса, д. 2","пл. Карла Маркса, д. 2",,,,,
0077,"ул. Кирзаводская, д. 1А","ул. Кирзаводская, д. 1А",,,,,
2634,"ул. Кирзаводская, д. 1А","ул. Кирзаводская, д. 1А",,,,,
0834,"ул. Колхидская, д. 11","ул. Колхидская, д. 11",,,,,
0829,"ул. Котовского, д. 2В","ул. Котовского, д. 2В",,,,,
0808,"ул. Ленина, д. 29","ул. Ленина, д. 29",,,,,
0811,"ул. Ленина, д. 84","ул. Ленина, д. 84",,,,,
0095,"ул. Мясниковой, д. 29","ул. Мясниковой, д. 29",,,,,
2540,"ул. Мясниковой, д. 29","ул. Мясниковой, д. 29",,,,,
0080,"ул. Петухова, д. 73","ул. Петухова, д. 73",,,,,
2538,"ул. Петухова, д. 73","ул. Петухова, д. 73",,,,,
0856,"ул. Русская, д. 1","ул. Русская, д. 1",,,,,
4021,"ул. Т. Снежиной, д. 44","ул. Т. Снежиной, д. 44",,,,,
0832,"ул. Трикотажная, д. 29","ул. Трикотажная, д. 29",,,,,
0817,"ул. Троллейная, 130, А","ул. Троллейная, 130, А",,,,,
0823,"ул. Тюленина, д. 25","ул. Тюленина, д. 25",,,,,
0072,"пр. Энергетиков, д. 9","пр. Энергетиков, д. 9",,,,,
2633,"ул. Энергетиков, д. 9","ул. Энергетиков, д. 9",,,,,
0857,"ул. Ясный Берег, д. 14Б","ул. Ясный Берег, д. 14Б",,,,,
0810,"г. Бердск, ул. Комсомольская, д. 15","г. Бердск, ул. Комсомольская, д. 15",,,,,
0860,"р.п. Кольцово, пр. Никольский, д. 16","р.п. Кольцово, пр. Никольский, д. 16",,,,,
4007,"г. Краснообск, ул. Восточная, д. 33","г. Краснообск, ул. Восточная, д. 33",,,,,
0859,"с. Ленинское, ул. Приморье, д. 10","с. Ленинское, ул. Приморье, д. 10",,,,,
4000,"п. Пашино, ул. Магистральная, д. 12","п. Пашино, ул. Магистральная, д. 12",,,,,
2759,"ул. Гагарина, д. 2, лит. Б","ул. Гагарина, д. 2, лит. Б",,,,,
0149,"ул. Гагарина, д. 2Б","ул. Гагарина, д. 2Б",,,,,
0047,"ул. Харьковская, д. 201","ул. Харьковская, д. 201",,,,,
2694,"г. Ноябрьск, ул. Цоя, д. 22","г. Ноябрьск, ул. Цоя, д. 22",,,,,
0285,"г. Ноябрьск, ул. Цоя, д. 22","г. Ноябрьск, ул. Цоя, д. 22",,,,,
0629,"г. Обнинск, пр. Маркса, д. 114","г. Обнинск, пр. Маркса, д. 114",,,,,
0295,"г. Обнинск, пр. Маркса, д. 45, пом. 2","г. Обнинск, пр. Маркса, д. 45, пом. 2",,,,,
0082,"ул. 10 Лет Октября, д. 190, к. 2","ул. 10 Лет Октября, д. 190, к. 2",,,,,
2635,"ул. 10 Лет Октября, д. 190, к. 2","ул. 10 Лет Октября, д. 190, к. 2",,,,,
0078,"ул. 21-я Амурская, д. 21","ул. 21-я Амурская, д. 21",,,,,
2536,"ул. 21-я Амурская, д. 21","ул. 21-я Амурская, д. 21",,,,,
0076,"ул. 70 лет Октября, д. 25, к. 3","ул. 70 лет Октября, д. 25, к. 3",,,,,
2535,"ул. 70 лет Октября, д. 25, к. 3","ул. 70 лет Октября, д. 25, к. 3",,,,,
0137,"Красноярский тракт, д. 22, лит. А","Красноярский тракт, д. 22, лит. А",,,,,
2702,"Красноярский тракт, д. 22, лит. А","Красноярский тракт, д. 22, лит. А",,,,,
0079,"ул. Лукашевича, д. 33","ул. Лукашевича, д. 33",,,,,
2537,"ул. Лукашевича, д. 33","ул. Лукашевича, д. 33",,,,,
0081,"пр. Сибирский, д. 7","пр. Сибирский, д. 7",,,,,
2705,"пр. Сибирский, д. 7","пр. Сибирский, д. 7",,,,,
0157,"ш. Московское, д. 56","ш. Московское, д. 56",,,,,
0113,"ш. Загородное, д. 36, к. 1","ш. Загородное, д. 36, к. 1",,,,,
2741,"ш. Загородное, д. 36, к. 1","ш. Загородное, д. 36, к. 1",,,,,
0226,"ш. Нежинское, д. 2, В","ш. Нежинское, д. 2, В",,,,,
0248,"ул. Рокоссовского, д. 2","ул. Рокоссовского, д. 2",,,,,
0240,"ул. Чкалова, д. 51","ул. Чкалова, д. 51",,,,,
2746,"пр. Ленина, д. 168","пр. Ленина, д. 168",,,,,
0167,"пр. Ленина, д. 168","пр. Ленина, д. 168",,,,,
0174,"ул. Антонова, д. 18, лит. B","ул. Антонова, д. 18, лит. B",,,,,
0063,"пр. Строителей, д. 2Б","пр. Строителей, д. 2Б",,,,,
2739,"пр. Строителей, д. 2, лит. Б","пр. Строителей, д. 2, лит. Б",,,,,
0328,"ул. Борчанинова, д. 13","ул. Борчанинова, д. 13",,,,,
0960,"ул. В. Татищева, д. 3","ул. В. Татищева, д. 3",,,,,
0948,"г. Пермь, ул. Солдатова, д. 9","г. Пермь, ул. Солдатова, д. 9",,,,,
0235,"б-р Гагарина, д. 65","б-р Гагарина, д. 65",,,,,
2653,"б-р Гагарина, д. 65","б-р Гагарина, д. 65",,,,,
0956,"ул. Гашкова, д. 19а","ул. Гашкова, д. 19а",,,,,
0297,"ул. Героев Хасана, д. 105","ул. Героев Хасана, д. 105",,,,,
2836,"ул. Героев Хасана, д. 105","ул. Героев Хасана, д. 105",,,,,
0957,"ул. Докучаева, д. 42б","ул. Докучаева, д. 42б",,,,,
0955,"пр. Комсомольский, д. 11","пр. Комсомольский, д. 11",,,,,
0147,"ш. Космонавтов, д. 162, Б","ш. Космонавтов, д. 162, Б",,,,,
0950,"ул. Крисанова, д. 19","ул. Крисанова, д. 19",,,,,
0951,"ул. Куйбышева, д. 85а","ул. Куйбышева, д. 85а",,,,,
0329,"ул. Мира, д. 41/1","ул. Мира, д. 41/1",,,,,
0042,"пр. Парковый, д. 66","пр. Парковый, д. 66",,,,,
2652,"пр. Парковый, д. 66","пр. Парковый, д. 66",,,,,
0958,"ул. Пушкина, д. 80","ул. Пушкина, д. 80",,,,,
0326,"ул. Революции, д. 13","ул. Революции, д. 13",,,,,
0952,"ул. Светлогорская, д. 22, лит. А","ул. Светлогорская, д. 22, лит. А",,,,,
0949,"ул. Чердынская, д. 28","ул. Чердынская, д. 28",,,,,
0954,"ул. Юрша, д. 86","ул. Юрша, д. 86",,,,,
0327,"г. Березники, ул. Мира, д. 82","г. Березники, ул. Мира, д. 82",,,,,
0947,"г. Березники, ул. Пятилетки, д.  41","г. Березники, ул. Пятилетки, д.  41",,,,,
0953,"г. Соликамск, ул. Северная, д. 55","г. Соликамск, ул. Северная, д. 55",,,,,
0180,"пр. Комсомольский, д. 27","пр. Комсомольский, д. 27",,,,,
2549,"пр. Комсомольский, д. 27","пр. Комсомольский, д. 27",,,,,
0016,"ул. Ленинградская, д. 13","ул. Ленинградская, д. 13",,,,,
2550,"ул. Ленинградская, д. 13","ул. Ленинградская, д. 13",,,,,
3635,"ул. Правды, д. 38, Б","ул. Правды, д. 38, Б",,,,,
3665,"г. Лахденпохья, ул. Советская, д. 26","г. Лахденпохья, ул. Советская, д. 26",,,,,
3666,"г. Сегежа, ул. Северная, д. 6","г. Сегежа, ул. Северная, д. 6",,,,,
3674,"г. Сортавала, ш. Выборгское, д. 23а","г. Сортавала, ш. Выборгское, д. 23а",,,,,
3640,"г. Сортавала, ул. Победы, д. 21","г. Сортавала, ул. Победы, д. 21",,,,,
0084,"пр. Строителей, д. 18","пр. Строителей, д. 18",,,,,
0026,"пр. Рижский, д. 96-Б","пр. Рижский, д. 96-Б",,,,,
2631,"пр. Рижский, д. 96-Б","пр. Рижский, д. 96-Б",,,,,
0311,"ул. Труда, д. 54","ул. Труда, д. 54",,,,,
2632,"ул. Труда, д. 54, пом. 1","ул. Труда, д. 54, пом. 1",,,,,
3575,"ул. Юбилейная, д. 68","ул. Юбилейная, д. 68",,,,,
3581,"ул. Яна Фабрициуса, д. 5, лит. А","ул. Яна Фабрициуса, д. 5, лит. А",,,,,
2761,"ул. 14-я линия, д. 84","ул. 14-я линия, д. 84",,,,,
0191,"ул. 14-я линия, д. 84","ул. 14-я линия, д. 84",,,,,
0045,"ул. Доватора, д. 267","ул. Доватора, д. 267",,,,,
2756,"ул. Доватора, д. 267","ул. Доватора, д. 267",,,,,
0299,"пр. Михаила Нагибина, д. 17","пр. Михаила Нагибина, д. 17",,,,,
0033,"г.  Аксай, пр. Аксайский, д. 2","г.  Аксай, пр. Аксайский, д. 2",,,,,
0129,"ул. 12-й Район, д. 131","ул. 12-й Район, д. 131",,,,,
0300,"ш. Солотчинское, д. 11","ш. Солотчинское, д. 11",,,,,
0111,"ул. Тимуровцев, д. 3, лит. А","ул. Тимуровцев, д. 3, лит. А",,,,,
2817,"ул. Тимуровцев, д. 3, лит. А","ул. Тимуровцев, д. 3, лит. А",,,,,
0217,"ул. Аэродромная, д. 47","ул. Аэродромная, д. 47",,,,,
0324,"ул. Казачья, д. 36","ул. Казачья, д. 36",,,,,
0241,"ул. Красноармейская, д. 131","ул. Красноармейская, д. 131",,,,,
0185,"ш. Московское , д. 205","ш. Московское , д. 205",,,,,
0164,"ул. Физкультурная, д. 141","ул. Физкультурная, д. 141",,,,,
2744,"ул. Физкультурная, д. 141","ул. Физкультурная, д. 141",,,,,
3550,"ул. 1-я Красноармейская, д. 15, лит. А","ул. 1-я Красноармейская, д. 15, лит. А",,,,,
0718,"ул. Автовская, д. 15, лит. А","ул. Автовская, д. 15, лит. А",,,,,
2304,"ул. Адмирала Черокова, д. 22","ул. Адмирала Черокова, д. 22",,,,,
2343,"ул. Академика Константинова, д. 1, к. 1","ул. Академика Константинова, д. 1, к. 1",,,,,
0018,"ул. Бабушкина, д. 125, лит. А","ул. Бабушкина, д. 125, лит. А",,,,,
3526,"ул. Бабушкина, д. 40, стр. 1","ул. Бабушкина, д. 40, стр. 1",,,,,
2556,"ул. Бабушкина, д. 125а","ул. Бабушкина, д. 125а",,,,,
0742,"пл. Балканская, д. 5, лит. Е","пл. Балканская, д. 5, лит. Е",,,,,
0726,"ул. Бестужевская, д. 10","ул. Бестужевская, д. 10",,,,,
0710,"пр. Богатырский, д. 35, к. 1","пр. Богатырский, д. 35, к. 1",,,,,
0758,"ул. Богословская, д. 6, к. 1, стр. 1","ул. Богословская, д. 6, к. 1, стр. 1",,,,,
0717,"пр. Большевиков, д. 7, к. 2, стр. 1","пр. Большевиков, д. 7, к. 2, стр. 1",,,,,
0757,"пр. Большой Сампсониевский, д. 66, лит. О","пр. Большой Сампсониевский, д. 66, лит. О",,,,,
0210,"дор. Брантовская, д. 3","дор. Брантовская, д. 3",,,,,
2318,"ул. Будапештская, д. 49, к. 1","ул. Будапештская, д. 49, к. 1",,,,,
0017,"пр. Будённого, д. 31, корп. 1","пр. Будённого, д. 31, корп. 1",,,,,
2509,"пр. Будённого, д. 31, корп. 1","пр. Будённого, д. 31, корп. 1",,,,,
0004,"ул. Бухарестская, д. 69, лит. А","ул. Бухарестская, д. 69, лит. А",,,,,
0013,"ул. Вербная, д. 21, лит. А","ул. Вербная, д. 21, лит. А",,,,,
3537,"пр. Ветеранов, д. 167, к. 1, стр. 1","пр. Ветеранов, д. 167, к. 1, стр. 1",,,,,
2302,"пр. Ветеранов, д. 179","пр. Ветеранов, д. 179",,,,,
2306,"б-р Воронцовский, д.22","б-р Воронцовский, д.22",,,,,
0005,"ш. Выборгское, д. 11, лит. А","ш. Выборгское, д. 11, лит. А",,,,,
2562,"ш. Выборгское, д. 11","ш. Выборгское, д. 11",,,,,
2315,"б-р Головнина, д. 3, к. 1","б-р Головнина, д. 3, к. 1",,,,,
0703,"пр. Гражданский, д. 111, лит. А","пр. Гражданский, д. 111, лит. А",,,,,
2324,"пр. Гражданский, д. 92, к. 1","пр. Гражданский, д. 92, к. 1",,,,,
0007,"пр. Дальневосточный, д. 16, лит. А","пр. Дальневосточный, д. 16, лит. А",,,,,
2561,"пр. Дальневосточный, д. 16, кор. 1, лит. А","пр. Дальневосточный, д. 16, кор. 1, лит. А",,,,,
0740,"пр. Дунайский, д. 27, к. 1, лит. Б","пр. Дунайский, д. 27, к. 1, лит. Б",,,,,
0763,"ул. Есенина, д. 23, корп. 1, стр. 1","ул. Есенина, д. 23, корп. 1, стр. 1",,,,,
0719,"пр. Заневский, д. 71, к. 1","пр. Заневский, д. 71, к. 1",,,,,
0318,"ул. Коллонтай, д. 10, лит. А","ул. Коллонтай, д. 10, лит. А",,,,,
0727,"пл. Конституции, д. 2, лит. А","пл. Конституции, д. 2, лит. А",,,,,
0725,"пр. Костромской, д. 24, лит. А","пр. Костромской, д. 24, лит. А",,,,,
0739,"ш. Красносельское, д. 54, к. 3, лит. А","ш. Красносельское, д. 54, к. 3, лит. А",,,,,
2317,"ул. Кустодиева, д. 7","ул. Кустодиева, д. 7",,,,,
0709,"пр. Левашовский, д. 21, лит. А","пр. Левашовский, д. 21, лит. А",,,,,
0776,"пр. Ленинский, д. 126, стр. 2","пр. Ленинский, д. 126, стр. 2",,,,,
0049,"пр. Лиговский, д. 283, лит. А","пр. Лиговский, д. 283, лит. А",,,,,
2554,"пр. Лиговский, д. 283а","пр. Лиговский, д. 283а",,,,,
2348,"пр. Литейный, д. 7","пр. Литейный, д. 7",,,,,
3516,"пер. Лыжный, д. 1","пер. Лыжный, д. 1",,,,,
3559,"ул. Маршала Казакова, д. 58, стр. 1","ул. Маршала Казакова, д. 58, стр. 1",,,,,
2316,"ул. Миллионная, д. 20","ул. Миллионная, д. 20",,,,,
3590,"наб. Морская, д. 15","наб. Морская, д. 15",,,,,
2310,"наб. Морская, д. 17, к. 1","наб. Морская, д. 17, к. 1",,,,,
3566,"пр. Московский, д. 222","пр. Московский, д. 222",,,,,
3532,"дор. Муринская, д. 63, к. 1","дор. Муринская, д. 63, к. 1",,,,,
2309,"дор. Муринская, д. 31, к. 3","дор. Муринская, д. 31, к. 3",,,,,
0755,"пр. Науки, д. 23, корп. 2, стр. 1","пр. Науки, д. 23, корп. 2, стр. 1",,,,,
2332,"ул. Некрасова, д. 48","ул. Некрасова, д. 48",,,,,
2337,"б-р Новаторов, д. 45, к. 1","б-р Новаторов, д. 45, к. 1",,,,,
0707,"ул. Новгородская, д. 23, лит. А","ул. Новгородская, д. 23, лит. А",,,,,
3554,"ул. Новолитовская, д. 15, лит. А","ул. Новолитовская, д. 15, лит. А",,,,,
0010,"наб. Обводного канала, д. 118, к. 7, лит. А","наб. Обводного канала, д. 118, к. 7, лит. А",,,,,
2511,"наб. Обводного канала, д. 118, к. 7, лит. А","наб. Обводного канала, д. 118, к. 7, лит. А",,,,,
0019,"пр. Обуховской обороны, д. 305, лит. А","пр. Обуховской обороны, д. 305, лит. А",,,,,
2555,"пр. Обуховской обороны, д. 305","пр. Обуховской обороны, д. 305",,,,,
2319,"наб. Октябрьская, д. 44","наб. Октябрьская, д. 44",,,,,
0265,"ул. Парашютная, д. 60, лит. А","ул. Парашютная, д. 60, лит. А",,,,,
0734,"ул. Парашютная, д. 61, к. 4","ул. Парашютная, д. 61, к. 4",,,,,
2513,"ул. Парашютная, д. 60, лит. А","ул. Парашютная, д. 60, лит. А",,,,,
2331,"ул. Парашютная, д. 61, к. 1","ул. Парашютная, д. 61, к. 1",,,,,
2323,"ул. Партизана Германа, д. 22","ул. Партизана Германа, д. 22",,,,,
0780,"ул. Пейзажная, д. 32, стр. 1","ул. Пейзажная, д. 32, стр. 1",,,,,
0772,"пер. Перевозный, д. 4, стр. 1","пер. Перевозный, д. 4, стр. 1",,,,,
0267,"пр. Пискаревский, д. 59, лит. А","пр. Пискаревский, д. 59, лит. А",,,,,
2547,"пр. Пискаревский, д. 59, лит. А","пр. Пискаревский, д. 59, лит. А",,,,,
0268,"ул. Планерная, д. 17, лит. А","ул. Планерная, д. 17, лит. А",,,,,
2559,"ул. Планерная, д. 17, лит. А","ул. Планерная, д. 17, лит. А",,,,,
2334,"ул. Прокофьева, д. 7, к. 2","ул. Прокофьева, д. 7, к. 2",,,,,
0777,"пр. Просвещения, д. 43","пр. Просвещения, д. 43",,,,,
2011,"пр. Рижский, д. 96-Б","пр. Рижский, д. 96-Б",,,,,
0749,"ул. Русановская, д. 18, к. 2","ул. Русановская, д. 18, к. 2",,,,,
0011,"ул. Руставели, д. 61, лит. А","ул. Руставели, д. 61, лит. А",,,,,
2558,"ул. Руставели, д. 61","ул. Руставели, д. 61",,,,,
3605,"ул. Саблинская, д. 19 ","ул. Саблинская, д. 19 ",,,,,
0002,"ул. Савушкина, д. 112, лит. А","ул. Савушкина, д. 112, лит. А",,,,,
0775,"ул. Савушкина, д. 126, лит. А","ул. Савушкина, д. 126, лит. А",,,,,
0271,"ул. Симонова, д. 13, к. 2, лит. А","ул. Симонова, д. 13, к. 2, лит. А",,,,,
2327,"пр. Славы, д. 52, к. 1","пр. Славы, д. 52, к. 1",,,,,
3511,"ул. Социалистическая, д. 21, лит. А","ул. Социалистическая, д. 21, лит. А",,,,,
2326,"пр. Средний В.О., д. 14","пр. Средний В.О., д. 14",,,,,
3540,"пл. Стачек, д. 9","пл. Стачек, д. 9",,,,,
2330,"ул. Струве, д. 8, к. 2","ул. Струве, д. 8, к. 2",,,,,
3502,"ул. Туристская, д. 26, стр. 1","ул. Туристская, д. 26, стр. 1",,,,,
0751,"пр. Ударников, д. 28/32","пр. Ударников, д. 28/32",,,,,
0009,"ул. Уральская, д. 29, лит. А","ул. Уральская, д. 29, лит. А",,,,,
0702,"ул. Уральская, д. 4, лит. Б","ул. Уральская, д. 4, лит. Б",,,,,
2667,"ул. Уральская, д. 29, лит. А","ул. Уральская, д. 29, лит. А",,,,,
0272,"пер. Урхов, д. 7, лит. А","пер. Урхов, д. 7, лит. А",,,,,
3535,"пр. Финляндский, д. 4","пр. Финляндский, д. 4",,,,,
0012,"ул. Хасанская, д. 17, лит. А","ул. Хасанская, д. 17, лит. А",,,,,
2512,"ул. Хасанская, д. 17, лит. А","ул. Хасанская, д. 17, лит. А",,,,,
0750,"пр. Художников, д. 11","пр. Художников, д. 11",,,,,
0713,"пр. Чкаловский, д. 50, лит. А","пр. Чкаловский, д. 50, лит. А",,,,,
0003,"ул. Шереметьевская, д. 11, лит. А","ул. Шереметьевская, д. 11, лит. А",,,,,
2505,"ул. Шереметьевская, д. 11, лит. А","ул. Шереметьевская, д. 11, лит. А",,,,,
0716,"пр. Шуваловский, д. 40, к. 2","пр. Шуваловский, д. 40, к. 2",,,,,
0266,"пр. Шуваловский, д. 45, лит. А","пр. Шуваловский, д. 45, лит. А",,,,,
2320,"пр. Энгельса, д. 134","пр. Энгельса, д. 134",,,,,
0001,"пр. Энергетиков, д. 16, лит. А","пр. Энергетиков, д. 16, лит. А",,,,,
0778,"шоссе Южное, 45, к. 5","шоссе Южное, 45, к. 5",,,,,
0273,"пр. Юрия Гагарина, д. 34/2, лит. Б","пр. Юрия Гагарина, д. 34/2, лит. Б",,,,,
0704,"пр. Юрия Гагарина, д. 71, лит. А","пр. Юрия Гагарина, д. 71, лит. А",,,,,
0785,"г.п. Аннинское, дер. Пески, территория Общественно-деловая зона Пески, стр. 2/1","г.п. Аннинское, дер. Пески, территория Общественно-деловая зона Пески, стр. 2/1",,,,,
2321,"дер. Бор, аллея Березовая, д. 8а","дер. Бор, аллея Березовая, д. 8а",,,,,
0214,"п. Бугры, ул. Южная, стр. 5","п. Бугры, ул. Южная, стр. 5",,,,,
2507,"п. Бугры, ул. Южная, стр. 5","п. Бугры, ул. Южная, стр. 5",,,,,
0771,"дер. Варзолово, ш. Гарболовское, зд. 2","дер. Варзолово, ш. Гарболовское, зд. 2",,,,,
3594,"п. Виллози, ул. Гатчинское шоссе, д.  7","п. Виллози, ул. Гатчинское шоссе, д.  7",,,,,
0774,"г. Всеволожск, г. п. Колтушское, 20-й километр Автодороги Кола, д. 40","г. Всеволожск, г. п. Колтушское, 20-й километр Автодороги Кола, д. 40",,,,,
0269,"г. Всеволожск, ш. Дорога Жизни, д. 12","г. Всеволожск, ш. Дорога Жизни, д. 12",,,,,
0062,"г. Всеволожск, ш. Дорога Жизни, д. 6","г. Всеволожск, ш. Дорога Жизни, д. 6",,,,,
0224,"г. Всеволожск, ш. Колтушское, д. 305","г. Всеволожск, ш. Колтушское, д. 305",,,,,
0766,"г. Всеволожск, п. Новое Токсово, ул. Парковая, д. 19, лит. Г","г. Всеволожск, п. Новое Токсово, ул. Парковая, д. 19, лит. Г",,,,,
0312,"г. Выборг, туп. Железнодорожный, д. 4","г. Выборг, туп. Железнодорожный, д. 4",,,,,
3500,"г. Выборг, ул. Мира, д. 1/23","г. Выборг, ул. Мира, д. 1/23",,,,,
0789,"г.п. Вырица, ул. Красная, д. 52","г.п. Вырица, ул. Красная, д. 52",,,,,
3543,"г. Гатчина, ул. Чехова, д. 14а, стр. 3","г. Гатчина, ул. Чехова, д. 14а, стр. 3",,,,,
0263,"г. Кингисепп, ш. Крикковское, д. 69","г. Кингисепп, ш. Крикковское, д. 69",,,,,
2553,"г. Кингисепп, ш. Крикковское, д. 69","г. Кингисепп, ш. Крикковское, д. 69",,,,,
0721,"г. Кириши, пр. Героев, д. 14А","г. Кириши, пр. Героев, д. 14А",,,,,
0741,"г. Кириши, пр. Героев, д. 33","г. Кириши, пр. Героев, д. 33",,,,,
3561,"г. Кировск, ул. Ладожская, д. 9, лит. А","г. Кировск, ул. Ладожская, д. 9, лит. А",,,,,
3553,"дер. Кисельня, ул. Центральная, 10/2, уч.","дер. Кисельня, ул. Центральная, 10/2, уч.",,,,,
0020,"г. Колпино, п. Тельмана, ул. Оборонная, д. 2Б, лит. А","г. Колпино, п. Тельмана, ул. Оборонная, д. 2Б, лит. А",,,,,
0743,"г. Колпино, ул. Пролетарская, д. 36, лит. А","г. Колпино, ул. Пролетарская, д. 36, лит. А",,,,,
0216,"г.  Красное Село, ул. Восстановления, д. 17","г.  Красное Село, ул. Восстановления, д. 17",,,,,
2307,"г. Кудрово, пр. Европейский, д. 16","г. Кудрово, пр. Европейский, д. 16",,,,,
2308,"г. Кудрово, пр. Европейский, д. 13, к. 6","г. Кудрово, пр. Европейский, д. 13, к. 6",,,,,
2313,"г. Кудрово, пр. Европейский, д. 3","г. Кудрово, пр. Европейский, д. 3",,,,,
0748,"г. Кудрово, пр. Европейский , д. 2","г. Кудрово, пр. Европейский , д. 2",,,,,
2300,"г. Кудрово, пер. Итальянский, д. 2, к. 2","г. Кудрово, пер. Итальянский, д. 2, к. 2",,,,,
0761,"г. Кудрово, ул. Пражская, стр. 6","г. Кудрово, ул. Пражская, стр. 6",,,,,
0048,"г. Кудрово, пр. Строителей, стр. 7","г. Кудрово, пр. Строителей, стр. 7",,,,,
2508,"г. Кудрово, пр. Строителей, стр. 7","г. Кудрово, пр. Строителей, стр. 7",,,,,
2303,"г. Кудрово, ул. Центральная, д. 8","г. Кудрово, ул. Центральная, д. 8",,,,,
3664,"п. Ленинское, ул. Советская, д. 2, лит. В","п. Ленинское, ул. Советская, д. 2, лит. В",,,,,
0722,"г. Ломоносов, ул. Михайловская, д. 40/7","г. Ломоносов, ул. Михайловская, д. 40/7",,,,,
0712,"г. Луга, ул. Урицкого, д. 77, к. 3","г. Луга, ул. Урицкого, д. 77, к. 3",,,,,
3522,"п. Мурино, бульвар Воронцовский, д. 16, корп. 1","п. Мурино, бульвар Воронцовский, д. 16, корп. 1",,,,,
0764,"п. Мурино, ул. Екатерининская, д. 16/5","п. Мурино, ул. Екатерининская, д. 16/5",,,,,
0782,"п. Мурино, ул. Екатерининская, д. 19","п. Мурино, ул. Екатерининская, д. 19",,,,,
2301,"п. Мурино, б-р Менделеева, д. 11, корп. 1","п. Мурино, б-р Менделеева, д. 11, корп. 1",,,,,
0706,"п. Мурино, пл. Привокзальная, д. 3, лит. Б","п. Мурино, пл. Привокзальная, д. 3, лит. Б",,,,,
0705,"п. Мурино, ул. Шувалова, д. 1","п. Мурино, ул. Шувалова, д. 1",,,,,
2314,"г. Мурино, ул. Шувалова, д. 11","г. Мурино, ул. Шувалова, д. 11",,,,,
2311,"п. Новогорелово, б-р Десантника Вадима Чугунова, д. 1, к. 1","п. Новогорелово, б-р Десантника Вадима Чугунова, д. 1, к. 1",,,,,
0316,"дер. Новое Девяткино, ул. Главная, 60, А","дер. Новое Девяткино, ул. Главная, 60, А",,,,,
2335,"д. Новосаратовка, ул. Первых, д. 4, к. 1","д. Новосаратовка, ул. Первых, д. 4, к. 1",,,,,
0015,"п. Парголово, ш. Выборгское, д. 216, к. 1, лит. А","п. Парголово, ш. Выборгское, д. 216, к. 1, лит. А",,,,,
2557,"п. Парголово, ш. Выборгское, д. 216/1","п. Парголово, ш. Выборгское, д. 216/1",,,,,
2312,"п. Парголово, ул. Заречная, д. 17","п. Парголово, ул. Заречная, д. 17",,,,,
0753,"п. Парголово, ул. Меркурьева, д. 3, стр. 1","п. Парголово, ул. Меркурьева, д. 3, стр. 1",,,,,
0738,"п. Парголово, ул. Михаила Дудина, д. 6, к. 1, стр. 1","п. Парголово, ул. Михаила Дудина, д. 6, к. 1, стр. 1",,,,,
3657,"п. Парголово, ш. Юкковское, д. 19, лит. А","п. Парголово, ш. Юкковское, д. 19, лит. А",,,,,
3504,"п. Первомайское, ул. Советская, д. 1, А","п. Первомайское, ул. Советская, д. 1, А",,,,,
3648,"пос. Пески, КП Алые Паруса","пос. Пески, КП Алые Паруса",,,,,
0264,"г. Петергоф, ш. Гостилицкое, д. 58, лит. А","г. Петергоф, ш. Гостилицкое, д. 58, лит. А",,,,,
2501,"г. Петергоф, ш. Гостилицкое, д. 58, лит. А","г. Петергоф, ш. Гостилицкое, д. 58, лит. А",,,,,
2012,"г. Петергоф, ш. Гостилицкое, д. 58, лит. А","г. Петергоф, ш. Гостилицкое, д. 58, лит. А",,,,,
0723,"г. Петергоф, пр. Санкт-Петербургский, д. 60","г. Петергоф, пр. Санкт-Петербургский, д. 60",,,,,
3655,"п. Победа, ул. Мира, д. 6а","п. Победа, ул. Мира, д. 6а",,,,,
0769,"г. Приозерск, ул. Красноармейская, д. 12","г. Приозерск, ул. Красноармейская, д. 12",,,,,
3679,"дер. Разметелево, д. 4, лит. Б","дер. Разметелево, д. 4, лит. Б",,,,,
3599,"п. Сельцо, д. 10","п. Сельцо, д. 10",,,,,
0767,"дер. Скотное, д. 1, лит. А","дер. Скотное, д. 1, лит. А",,,,,
3661,"п. Сосново, ул. Ленинградская, д. 71","п. Сосново, ул. Ленинградская, д. 71",,,,,
0270,"г. Сосновый Бор, ул. Академика Александрова, д. 2","г. Сосновый Бор, ул. Академика Александрова, д. 2",,,,,
2500,"г. Сосновый Бор, ул. Академика Александрова, д. 2","г. Сосновый Бор, ул. Академика Александрова, д. 2",,,,,
0714,"г. Сосновый Бор, пр. Героев, д. 78","г. Сосновый Бор, пр. Героев, д. 78",,,,,
0006,"дер. Старо-Паново, ш. Таллинское, д. 159, лит. А","дер. Старо-Паново, ш. Таллинское, д. 159, лит. А",,,,,
2510,"дер. Старо-Паново, ш. Таллинское, д. 159, лит. А","дер. Старо-Паново, ш. Таллинское, д. 159, лит. А",,,,,
0790,"п. Тайцы, ул. Вербная, д. 2, лит. А","п. Тайцы, ул. Вербная, д. 2, лит. А",,,,,
0746,"г. Тихвин, ул. Карла Маркса, 50, Б","г. Тихвин, ул. Карла Маркса, 50, Б",,,,,
0736,"г.  Тосно, ул. ул. Боярова, д. 4А","г.  Тосно, ул. ул. Боярова, д. 4А",,,,,
0319,"п. Шушары, ш. Колпинское, д. 32, стр. 1","п. Шушары, ш. Колпинское, д. 32, стр. 1",,,,,
0008,"п. Шушары, ш. Московское, д. 16, лит. А","п. Шушары, ш. Московское, д. 16, лит. А",,,,,
2560,"п. Шушары, ш. Московское, д. 16, лит. А","п. Шушары, ш. Московское, д. 16, лит. А",,,,,
0724,"п. Шушары, пр. Новгородский, д. 10, к. 2","п. Шушары, пр. Новгородский, д. 10, к. 2",,,,,
3654,"п. Шушары, пр. Новгородский, д. 3, стр. 1","п. Шушары, пр. Новгородский, д. 3, стр. 1",,,,,
3596,"дер. Энколово, ул. Центральная, д. 3","дер. Энколово, ул. Центральная, д. 3",,,,,
0793,"с.п. Юкковское, территория Остров, д. 3","с.п. Юкковское, территория Остров, д. 3",,,,,
0066,"ул. Волгоградская, д. 71","ул. Волгоградская, д. 71",,,,,
0286,"ул. Верхняя, д. 17","ул. Верхняя, д. 17",,,,,
0166,"ул. им. Блинова Ф. А., д. 50","ул. им. Блинова Ф. А., д. 50",,,,,
2642,"ул. им. Блинова Ф. А., д. 50","ул. им. Блинова Ф. А., д. 50",,,,,
0059,"ул. Усть-Курдюмская, ЗД. 73","ул. Усть-Курдюмская, ЗД. 73",,,,,
2641,"ул. Усть-Курдюмская, зд. 73","ул. Усть-Курдюмская, зд. 73",,,,,
0132,"ул. 25 Сентября, д. 35, лит. А","ул. 25 Сентября, д. 35, лит. А",,,,,
0134,"ул. Доваторцев, д. 75, лит. А","ул. Доваторцев, д. 75, лит. А",,,,,
0144,"с.  Верхнерусское, ул. Батайская, д. 2А","с.  Верхнерусское, ул. Батайская, д. 2А",,,,,
2758,"с. Верхнерусское, ул. Батайская, д. 2, лит. А","с. Верхнерусское, ул. Батайская, д. 2, лит. А",,,,,
0199,"ул. Худайбердина, д. 120","ул. Худайбердина, д. 120",,,,,
0092,"ул. 30 лет Победы, д. 74","ул. 30 лет Победы, д. 74",,,,,
2644,"ул. 30 лет Победы, д. 74","ул. 30 лет Победы, д. 74",,,,,
0093,"тракт Югорский, д. 2","тракт Югорский, д. 2",,,,,
0321,"тракт Югорский, д. 38","тракт Югорский, д. 38",,,,,
2646,"тракт Югорский, д. 2","тракт Югорский, д. 2",,,,,
0022,"пр. Октябрьский, д. 141","пр. Октябрьский, д. 141",,,,,
0106,"ш. Сысольское, д. 27","ш. Сысольское, д. 27",,,,,
2671,"ш. Сысольское, д. 27","ш. Сысольское, д. 27",,,,,
2762,"ул. 2-я Советская, д. 74, лит. А-Б","ул. 2-я Советская, д. 74, лит. А-Б",,,,,
0215,"ул. 2-я Советская, д. 74, лит. А-Б","ул. 2-я Советская, д. 74, лит. А-Б",,,,,
0046,"ул. Большая Бульварная, д. 15","ул. Большая Бульварная, д. 15",,,,,
0325,"ул. Чичерина, д. 3","ул. Чичерина, д. 3",,,,,
0114,"ш. Московское, д. 16, к. 3","ш. Московское, д. 16, к. 3",,,,,
2673,"ш. Московское, д. 16, к. 3","ш. Московское, д. 16, к. 3",,,,,
3154,"с.п. Черногубовское, д. Батино, ул. Сергея Есенина, д. 1а","с.п. Черногубовское, д. Батино, ул. Сергея Есенина, д. 1а",,,,,
2835,"г. Тобольск, мкр. 15, д. 21","г. Тобольск, мкр. 15, д. 21",,,,,
0135,"г.  Тобольск, мкр-н 15, д. 21","г.  Тобольск, мкр-н 15, д. 21",,,,,
0060,"ул. Громовой, д. 25А","ул. Громовой, д. 25А",,,,,
0052,"ш. Южное, д. 4","ш. Южное, д. 4",,,,,
0096,"ул. Елизаровых, д. 13","ул. Елизаровых, д. 13",,,,,
2541,"ул. Елизаровых, д. 13","ул. Елизаровых, д. 13",,,,,
0853,"ул. Красноармейская, д. 44","ул. Красноармейская, д. 44",,,,,
0088,"пр. Мира, д. 30","пр. Мира, д. 30",,,,,
2638,"пр. Мира, д. 30","пр. Мира, д. 30",,,,,
4026,"ул. Нахимова, д. 8, стр. 13","ул. Нахимова, д. 8, стр. 13",,,,,
0099,"ул. Пушкина, д. 59","ул. Пушкина, д. 59",,,,,
2542,"ул. Пушкина, д. 59","ул. Пушкина, д. 59",,,,,
4025,"п. Зональная Станция, ул. Тихая, д. 109","п. Зональная Станция, ул. Тихая, д. 109",,,,,
0865,"дер. Кисловка, ул. В. Кандинского, д. 1","дер. Кисловка, ул. В. Кандинского, д. 1",,,,,
1406,"г. Тула, ул. Металлургов, д. 62, лит. А","г. Тула, ул. Металлургов, д. 62, лит. А",,,,,
1405,"г. Тула, ул. Путейская, д. 5","г. Тула, ул. Путейская, д. 5",,,,,
0209,"ул. Алебашевская, д. 19","ул. Алебашевская, д. 19",,,,,
0964,"ул. Лесопарковая, д. 1, к. 1","ул. Лесопарковая, д. 1, к. 1",,,,,
2643,"ул. Мельникайте, д. 139","ул. Мельникайте, д. 139",,,,,
0091,"ул. Мельникайте, д. 139","ул. Мельникайте, д. 139",,,,,
2696,"ул. Народная, д. 76","ул. Народная, д. 76",,,,,
0245,"ул. Народная, д. 76","ул. Народная, д. 76",,,,,
0094,"ул. Республики, д. 291","ул. Республики, д. 291",,,,,
2649,"ул. Республики, д. 291","ул. Республики, д. 291",,,,,
0146,"Тобольский тракт, д. 101","Тобольский тракт, д. 101",,,,,
2692,"Тобольский тракт, д. 101","Тобольский тракт, д. 101",,,,,
2733,"пр. Олимпийский, д. 6","пр. Олимпийский, д. 6",,,,,
0037,"пр. Олимпийский, д. 6","пр. Олимпийский, д. 6",,,,,
0036,"пр. Созидателей, д. 112","пр. Созидателей, д. 112",,,,,
2732,"пр. Созидателей, д. 112","пр. Созидателей, д. 112",,,,,
0200,"ул. Бакалинская, д. 27","ул. Бакалинская, д. 27",,,,,
0057,"ул. Бельская, д. 70","ул. Бельская, д. 70",,,,,
2737,"ул. Бельская, д. 70","ул. Бельская, д. 70",,,,,
0202,"ул. Пархоменко, д. 156","ул. Пархоменко, д. 156",,,,,
0030,"ул. Сипайловская, д. 1","ул. Сипайловская, д. 1",,,,,
0225,"ул. Ферина, 29","ул. Ферина, 29",,,,,
2645,"ул. Объездная, д. 9","ул. Объездная, д. 9",,,,,
0100,"ул. Объездная, д. 9","ул. Объездная, д. 9",,,,,
2736,"пр. Тракторостроителей, д. 76","пр. Тракторостроителей, д. 76",,,,,
0056,"пр. Тракторостроителей, д. 76","пр. Тракторостроителей, д. 76",,,,,
2651,"ул. Академика Сахарова, д. 15","ул. Академика Сахарова, д. 15",,,,,
0184,"ул. Академика Сахарова, д. 15","ул. Академика Сахарова, д. 15",,,,,
0301,"ул. Артиллерийская, д. 136","ул. Артиллерийская, д. 136",,,,,
2648,"ул. Блюхера, д. 126","ул. Блюхера, д. 126",,,,,
0069,"ул. Блюхера, д. 126","ул. Блюхера, д. 126",,,,,
2650,"ул. Братьев Кашириных, д. 75","ул. Братьев Кашириных, д. 75",,,,,
0154,"ул. Братьев Кашириных, д. 75","ул. Братьев Кашириных, д. 75",,,,,
0213,"ш. Копейское, д. 64","ш. Копейское, д. 64",,,,,
0212,"ул. Черкасская, д. 23","ул. Черкасская, д. 23",,,,,
2699,"ул. Черкасская, д. 23","ул. Черкасская, д. 23",,,,,
0021,"ул. Годовикова, д. 37","ул. Годовикова, д. 37",,,,,
0242,"ш. Кирилловское, д. 50А","ш. Кирилловское, д. 50А",,,,,
0024,"пр. Шекснинский, д. 2","пр. Шекснинский, д. 2",,,,,
2548,"пр. Шекснинский, д. 2","пр. Шекснинский, д. 2",,,,,
0279,"ул. Ленина, д. 387, лит. Ж","ул. Ленина, д. 387, лит. Ж",,,,,
0068,"пр. Александровск-Грушевский, д. 13","пр. Александровск-Грушевский, д. 13",,,,,
2743,"ул. Красноярская, д. 5, лит. Б","ул. Красноярская, д. 5, лит. Б",,,,,
0158,"г.  Энгельс, ул. Красноярская, д. 5, лит. Б","г.  Энгельс, ул. Красноярская, д. 5, лит. Б",,,,,
0156,"г.  Энгельс, пр. Химиков, д. 1","г.  Энгельс, пр. Химиков, д. 1",,,,,
0098,"ул. Волгоградская, д. 29","ул. Волгоградская, д. 29",,,,,
0119,"пр. Авиаторов, д. 149","пр. Авиаторов, д. 149",,,,,
0131,"пр. Ленинградский, д. 54А","пр. Ленинградский, д. 54А",,,,,
0303,"пр. Московский, д. 108","пр. Московский, д. 108",,,,,
0118,"ш. Тутаевское, д. 1","ш. Тутаевское, д. 1",,,,,
2813,"ш. Тутаевское, д. 1","ш. Тутаевское, д. 1",,,,,
0127,"пр. Фрунзе, д. 56, лит. Д","пр. Фрунзе, д. 56, лит. Д",,,,,
